STARLINK-2022           
1 47643U 21012Z   24095.94442965  .00002448  00000+0  18322-3 0  9999
2 47643  53.0547 330.8531 0001365  99.1715 260.9428 15.06396717174198
